sat1_epoch day,sat1_ballistic coefficient,sat1_inclination,sat1_right ascension of the ascending node,sat1_eccentricity,sat1_argument of perigee,sat1_mean anomaly,sat1_mean motion,sat1_apogee,sat1_perigee,sat2_epoch day,sat2_ballistic coefficient,sat2_inclination,sat2_right ascension of the ascending node,sat2_eccentricity,sat2_argument of perigee,sat2_mean anomaly,sat2_mean motion,sat2_apogee,sat2_perigee,inclination difference,eccentricity difference,ascending node difference,argument of perigee difference,mean anomaly difference,mean motion difference,apogee difference,perigee difference,close_approach
355.78029003,-9e-08,87.9066,7.3736,0.0001775,93.5935,266.5398,13.15547447,-6267.9862210489555,-6268.02278445048,355.92188023,6.603e-05,43.0021,177.1025,0.0001674,252.9695,107.0964,15.02507907,-6276.720464654921,-6276.752024160293,44.9045,1.0100000000000002e-05,-169.72889999999998,-159.376,159.4434,-1.8696046000000006,8.734243605965275,8.729239709813555,False
351.90098931,1.69e-06,53.2179,164.3443,0.0001522,90.2988,269.8178,15.08835025,-6276.985644591844,-6277.014258206638,355.87269324,5.8e-06,53.0555,148.9864,0.0001333,96.2142,263.8999,15.06406913,-6276.886425112282,-6276.9115124472055,0.1623999999999981,1.8900000000000026e-05,15.3579,-5.915400000000005,5.917899999999975,0.02428111999999949,-0.09921947956172517,-0.10274575943276432,False
351.71008076,9.93e-06,53.2198,340.1806,0.0001558,89.254,270.8631,15.08843434,-6276.985655496873,-6277.01494580319,356.33281986,-6.3e-07,2.9175,83.3475,0.0001405,178.5237,201.0497,1.00271702,-5797.986739505979,-5798.147733612506,50.3023,1.5299999999999992e-05,256.83310000000006,-89.26969999999999,69.81339999999997,14.085717319999999,-478.9989159908937,-478.86721219068386,False
351.45648521,-4.88e-05,53.0553,353.8145,0.0001429,101.3364,258.7786,15.06386283,-6276.884662477497,-6276.911556797763,356.41668981,-0.01436989,42.9993,259.2896,0.0001561,269.1415,267.0099,15.70291158,-6279.454518350176,-6279.483094388827,10.056000000000004,-1.3199999999999996e-05,94.5249,-167.8051,-8.231300000000033,-0.6390487500000006,2.5698558726789997,2.5715375910640432,False
351.90098931,1.69e-06,53.2179,164.3443,0.0001522,90.2988,269.8178,15.08835025,-6276.985644591844,-6277.014258206638,355.92188023,6.603e-05,43.0021,177.1025,0.0001674,252.9695,107.0964,15.02507907,-6276.720464654921,-6276.752024160293,10.215800000000002,-1.519999999999999e-05,-12.758199999999988,-162.6707,162.72139999999996,0.0632711799999992,-0.26517993692323216,-0.2622340463449291,False
352.07113575,0.00017874,53.0537,281.1031,0.0001616,99.5356,260.5816,15.06378066,-6276.882560512126,-6276.912974353691,355.60235285,0.00014745,53.213,70.3845,0.0001527,182.4093,177.6894,15.14515203,-6277.220811651186,-6277.249447442622,-0.15930000000000177,8.9e-06,210.71859999999998,-82.8737,82.89219999999997,-0.08137136999999939,0.33825113906004844,0.3364730889306884,False
356.4512657,2.371e-05,97.9304,127.8647,0.0011134,19.6975,340.4661,14.73017997,-6275.3759452302775,-6275.5886440565655,356.48843705,8.455e-05,97.4602,52.7651,6.01e-05,30.172,329.9549,15.19305872,-6277.426715863042,-6277.437962695861,0.4702000000000055,0.0010533,75.09960000000001,-10.474499999999999,10.511199999999974,-0.4628787499999998,2.0507706327643973,1.8493186392952339,False
351.90098931,1.69e-06,53.2179,164.3443,0.0001522,90.2988,269.8178,15.08835025,-6276.985644591844,-6277.014258206638,356.06856274,-1.187e-05,53.0556,3.3506,0.000142,95.8943,264.2208,15.06391522,-6276.884965381657,-6276.9116902565565,0.1623000000000019,1.0200000000000004e-05,160.9937,-5.595500000000001,5.59699999999998,0.024435029999999358,-0.10067921018708148,-0.10256795008172048,False
351.90098931,1.69e-06,53.2179,164.3443,0.0001522,90.2988,269.8178,15.08835025,-6276.985644591844,-6277.014258206638,356.57276406,-4.5e-07,1.1726,284.1309,0.0023853,357.4736,230.1122,0.98160936,-5788.497029268375,-5791.269305230694,52.0453,-0.0022331,-119.78659999999999,-267.1748,39.705599999999976,14.10674089,-488.4886153234693,-485.7449529759442,False
356.48843705,8.455e-05,97.4602,52.7651,6.01e-05,30.172,329.9549,15.19305872,-6277.426715863042,-6277.437962695861,356.46876995,2.8e-07,87.9062,7.248,0.0001651,86.8301,273.3018,13.15549738,-6267.987617789112,-6268.021626862819,9.554000000000002,-0.000105,45.5171,-56.658100000000005,56.653099999999995,2.03756134,-9.439098073929927,-9.416335833041558,False
356.46876995,2.8e-07,87.9062,7.248,0.0001651,86.8301,273.3018,13.15549738,-6267.987617789112,-6268.021626862819,356.44071472,8.882e-05,97.6314,64.9887,0.0005125,180.7464,179.3757,15.06915281,-6276.871917782045,-6276.968349644989,-9.725200000000001,-0.00034740000000000004,-57.7407,-93.91629999999999,93.92610000000002,-1.9136554300000004,8.884299992932938,8.946722782169672,False
356.22412751,-1.73e-06,0.014,9.8828,6.29e-05,49.2118,22.8735,1.00270502,-5798.02662771282,-5798.098703229504,355.93031869,1.577e-05,53.1585,233.9991,0.0001417,88.8525,271.2655,15.69711298,-6279.4332931749595,-6279.4592395030795,-53.144499999999994,-7.88e-05,-224.1163,-39.64070000000001,-248.39199999999997,-14.69440796,481.40666546213924,481.36053627357524,False
355.82908234,1.21e-05,53.1597,198.5558,0.0001456,100.1438,259.9727,15.30186418,-6277.862856041709,-6277.889973629709,355.53114664,4.802e-05,53.16,84.2219,0.0001396,90.2332,269.8829,15.30170631,-6277.862774181572,-6277.88877446538,-0.0002999999999957481,5.999999999999983e-06,114.3339,9.910600000000002,-9.910200000000032,0.00015787000000067053,-8.186013747035759e-05,-0.0011991643286819453,False
352.15175457,7.781e-05,97.5085,49.1471,0.0014328,257.2683,102.695,15.19280007,-6277.297212054129,-6277.565342585841,356.22412751,-1.73e-06,0.014,9.8828,6.29e-05,49.2118,22.8735,1.00270502,-5798.02662771282,-5798.098703229504,97.4945,0.0013698999999999999,39.264300000000006,208.05650000000003,79.82149999999999,14.19009505,-479.2705843413087,-479.4666393563366,False
356.44071472,8.882e-05,97.6314,64.9887,0.0005125,180.7464,179.3757,15.06915281,-6276.871917782045,-6276.968349644989,356.34371586,5.356e-05,53.162,50.3111,0.0001568,88.4832,271.6352,15.3959475,-6278.241640234297,-6278.270724695476,44.4694,0.0003557,14.677599999999991,92.2632,-92.2595,-0.32679468999999983,1.3697224522520628,1.3023750504871714,False
355.92188023,6.603e-05,43.0021,177.1025,0.0001674,252.9695,107.0964,15.02507907,-6276.720464654921,-6276.752024160293,355.82908234,1.21e-05,53.1597,198.5558,0.0001456,100.1438,259.9727,15.30186418,-6277.862856041709,-6277.889973629709,-10.157600000000002,2.1800000000000015e-05,-21.453300000000013,152.8257,-152.87629999999996,-0.2767851100000005,1.142391386788404,1.1379494694156165,False
352.15175457,7.781e-05,97.5085,49.1471,0.0014328,257.2683,102.695,15.19280007,-6277.297212054129,-6277.565342585841,352.13605044,6.728e-05,53.2179,348.256,0.0001596,102.5006,257.6165,15.0881338,-6276.984049851829,-6277.014054954302,44.2906,0.0012732,-299.10889999999995,154.7677,-154.92149999999998,0.10466627000000095,-0.313162202300191,-0.5512876315387985,False
351.90098931,1.69e-06,53.2179,164.3443,0.0001522,90.2988,269.8178,15.08835025,-6276.985644591844,-6277.014258206638,356.36527789,6.96e-06,53.2177,119.2773,0.0001256,99.592,260.5214,15.08849296,-6276.988737782755,-6277.0123504460735,0.00019999999999953388,2.6600000000000023e-05,45.06700000000001,-9.293199999999999,9.296399999999949,-0.00014271000000043443,0.0030931909113860456,-0.0019077605647908058,False
351.71008076,9.93e-06,53.2198,340.1806,0.0001558,89.254,270.8631,15.08843434,-6276.985655496873,-6277.01494580319,356.55572601,8.791e-05,53.1597,197.566,0.0001783,92.6714,267.4495,15.39542097,-6278.237531291687,-6278.270604491077,0.06009999999999849,-2.2500000000000005e-05,142.61460000000002,-3.4174000000000007,3.413599999999974,-0.3069866300000008,1.251875794814623,1.2556586878872622,False
351.7175806,-2.7e-07,97.6559,349.986,0.0001011,95.1389,264.9951,15.01258385,-6276.674411460106,-6276.693482166061,351.99459844,-4.084e-05,53.151,242.1529,6.11e-05,318.279,41.8164,15.30153269,-6277.869379964191,-6277.880759830649,44.5049,4.000000000000001e-05,107.8331,-223.1401,223.1787,-0.28894883999999976,1.1949685040844997,1.1872776645886916,False
355.82908234,1.21e-05,53.1597,198.5558,0.0001456,100.1438,259.9727,15.30186418,-6277.862856041709,-6277.889973629709,356.47623647,6e-07,88.989,336.021,0.0015816,149.1813,211.027,13.50906325,-6269.649608593836,-6269.969693905004,-35.8293,-0.001436,-137.4652,-49.037499999999994,48.94569999999999,1.7928009300000003,-8.213247447873073,-7.920279724705324,False
355.53114664,4.802e-05,53.16,84.2219,0.0001396,90.2332,269.8829,15.30170631,-6277.862774181572,-6277.88877446538,356.34371586,5.356e-05,53.162,50.3111,0.0001568,88.4832,271.6352,15.3959475,-6278.241640234297,-6278.270724695476,-0.0020000000000024443,-1.7199999999999984e-05,33.9108,1.75,-1.752299999999991,-0.09424118999999997,0.3788660527252432,0.3819502300957538,False
355.70380159,2.02e-06,53.2217,352.1651,0.0001798,94.3583,265.7615,15.08838076,-6276.983176930769,-6277.016979302678,356.48843705,8.455e-05,97.4602,52.7651,6.01e-05,30.172,329.9549,15.19305872,-6277.426715863042,-6277.437962695861,-44.2385,0.00011970000000000001,299.4,64.1863,-64.1934,-0.10467796000000007,0.4435389322725314,0.4209833931827234,False
355.92188023,6.603e-05,43.0021,177.1025,0.0001674,252.9695,107.0964,15.02507907,-6276.720464654921,-6276.752024160293,355.53114664,4.802e-05,53.16,84.2219,0.0001396,90.2332,269.8829,15.30170631,-6277.862774181572,-6277.88877446538,-10.157899999999998,2.7799999999999998e-05,92.88059999999999,162.73630000000003,-162.7865,-0.27662723999999983,1.1423095266509335,1.1367503050869345,False
351.99459844,-4.084e-05,53.151,242.1529,6.11e-05,318.279,41.8164,15.30153269,-6277.869379964191,-6277.880759830649,351.91667824,-0.01360305,42.9997,178.7084,0.0001753,272.2936,49.8229,15.70856288,-6279.474718908917,-6279.506802048293,10.151300000000006,-0.00011420000000000001,63.44449999999998,45.98539999999997,-8.006499999999996,-0.4070301900000004,1.6053389447260997,1.6260422176437714,False
